{"type": "FeatureCollection", "features": [ {"type": "Feature", "properties": {"norad_id": 42738, "name": "QZS-2 (QZSS/PRN 194)", "group": "gnss", "lat": -9.99059525662224, "lon": -126.38888697315895, "alt_km": 34729.94469311282, "timestamp": "2025-12-16T23:36:36.439395+00:00", "meta": {"OBJECT_NAME": "QZS-2 (QZSS/PRN 194)", "OBJECT_ID": "2017-028A", "EPOCH": "2025-12-15T14:01:12.084960", "MEAN_MOTION": 1.00282297, "ECCENTRICITY": 0.0757053, "INCLINATION": 39.7095, "RA_OF_ASC_NODE": 245.8416, "ARG_OF_PERICENTER": 269.5062, "MEAN_ANOMALY": 281.3517, "EPHEMERIS_TYPE": 0, "CLASSIFICATION_TYPE": "U", "NORAD_CAT_ID": 42738, "ELEMENT_SET_NO": 999, "REV_AT_EPOCH": 578, "BSTAR": 0, "MEAN_MOTION_DOT": -1.57e-06, "MEAN_MOTION_DDOT": 0}, "tle": {"line1": "1 42738U 17028A   25349.58416765 -.00000157  00000+0  00000+0 0  9999", "line2": "2 42738  39.7095 245.8416 0757053 269.5062 281.3517  1.00282297  5784"}}, "geometry": {"type": "Point", "coordinates": [-126.38888697315895, -9.99059525662224]}}, {"type": "Feature", "properties": {"norad_id": 42917, "name": "QZS-3 (QZSS/PRN 199)", "group": "gnss", "lat": 0.001187097410175514, "lon": -152.95957214350113, "alt_km": 35783.34456406725, "timestamp": "2025-12-16T23:36:36.439408+00:00", "meta": {"OBJECT_NAME": "QZS-3 (QZSS/PRN 199)", "OBJECT_ID": "2017-048A", "EPOCH": "2025-12-16T07:06:43.742304", "MEAN_MOTION": 1.00270541, "ECCENTRICITY": 0.00018478, "INCLINATION": 0.0674, "RA_OF_ASC_NODE": 180.5566, "ARG_OF_PERICENTER": 92.5516, "MEAN_ANOMALY": 45.8199, "EPHEMERIS_TYPE": 0, "CLASSIFICATION_TYPE": "U", "NORAD_CAT_ID": 42917, "ELEMENT_SET_NO": 999, "REV_AT_EPOCH": 3042, "BSTAR": 0, "MEAN_MOTION_DOT": -3.24e-06, "MEAN_MOTION_DDOT": 0}, "tle": {"line1": "1 42917U 17048A   25350.29633961 -.00000324  00000+0  00000+0 0  9995", "line2": "2 42917   0.0674 180.5566 0001847  92.5516  45.8199  1.00270541 30426"}}, "geometry": {"type": "Point", "coordinates": [-152.95957214350113, 0.001187097410175514]}}, {"type": "Feature", "properties": {"norad_id": 42939, "name": "COSMOS 2522 (752)", "group": "gnss", "lat": -44.481522689703795, "lon": 169.54884859786304, "alt_km": 19133.726422872453, "timestamp": "2025-12-16T23:36:36.439422+00:00", "meta": {"OBJECT_NAME": "COSMOS 2522 (752)", "OBJECT_ID": "2017-055A", "EPOCH": "2025-12-16T02:41:16.915776", "MEAN_MOTION": 2.13102063, "ECCENTRICITY": 0.00063883, "INCLINATION": 64.0761, "RA_OF_ASC_NODE": 198.1142, "ARG_OF_PERICENTER": 224.0896, "MEAN_ANOMALY": 135.9399, "EPHEMERIS_TYPE": 0, "CLASSIFICATION_TYPE": "U", "NORAD_CAT_ID": 42939, "ELEMENT_SET_NO": 999, "REV_AT_EPOCH": 6407, "BSTAR": 0, "MEAN_MOTION_DOT": 1.09e-06, "MEAN_MOTION_DDOT": 0}, "tle": {"line1": "1 42939U 17055A   25350.11200134  .00000109  00000+0  00000+0 0  9990", "line2": "2 42939  64.0761 198.1142 0006388 224.0896 135.9399  2.13102063 64079"}}, "geometry": {"type": "Point", "coordinates": [169.54884859786304, -44.481522689703795]}}, {"type": "Feature", "properties": {"norad_id": 42965, "name": "QZS-4 (QZSS/PRN 195)", "group": "gnss", "lat": -26.711949978196802, "lon": -157.6568143634985, "alt_km": 33519.0898173193, "timestamp": "2025-12-16T23:36:36.439436+00:00", "meta": {"OBJECT_NAME": "QZS-4 (QZSS/PRN 195)", "OBJECT_ID": "2017-062A", "EPOCH": "2025-12-15T20:50:38.380128", "MEAN_MOTION": 1.00252314, "ECCENTRICITY": 0.07516338, "INCLINATION": 40.2242, "RA_OF_ASC_NODE": 345.8306, "ARG_OF_PERICENTER": 271.6216, "MEAN_ANOMALY": 276.1231, "EPHEMERIS_TYPE": 0, "CLASSIFICATION_TYPE": "U", "NORAD_CAT_ID": 42965, "ELEMENT_SET_NO": 999, "REV_AT_EPOCH": 2996, "BSTAR": 0, "MEAN_MOTION_DOT": -3.51e-06, "MEAN_MOTION_DDOT": 0}, "tle": {"line1": "1 42965U 17062A   25349.86849977 -.00000351  00000+0  00000+0 0  9991", "line2": "2 42965  40.2242 345.8306 0751633 271.6216 276.1231  1.00252314 29967"}}, "geometry": {"type": "Point", "coordinates": [-157.6568143634985, -26.711949978196802]}}, {"type": "Feature", "properties": {"norad_id": 43001, "name": "BEIDOU-3 M1 (C19)", "group": "gnss", "lat": -55.62412886512903, "lon": -5.811823760775567, "alt_km": 21510.160477788806, "timestamp": "2025-12-16T23:36:36.439449+00:00", "meta": {"OBJECT_NAME": "BEIDOU-3 M1 (C19)", "OBJECT_ID": "2017-069A", "EPOCH": "2025-12-14T22:58:39.271008", "MEAN_MOTION": 1.86231328, "ECCENTRICITY": 0.00093773, "INCLINATION": 56.5292, "RA_OF_ASC_NODE": 69.1601, "ARG_OF_PERICENTER": 302.6991, "MEAN_ANOMALY": 57.229, "EPHEMERIS_TYPE": 0, "CLASSIFICATION_TYPE": "U", "NORAD_CAT_ID": 43001, "ELEMENT_SET_NO": 999, "REV_AT_EPOCH": 5517, "BSTAR": 0, "MEAN_MOTION_DOT": -8.3e-07, "MEAN_MOTION_DDOT": 0}, "tle": {"line1": "1 43001U 17069A   25348.95739897 -.00000083  00000+0  00000+0 0  9990", "line2": "2 43001  56.5292  69.1601 0009377 302.6991  57.2290  1.86231328 55175"}}, "geometry": {"type": "Point", "coordinates": [-5.811823760775567, -55.62412886512903]}}, {"type": "Feature", "properties": {"norad_id": 43002, "name": "BEIDOU-3 M2 (C20)", "group": "gnss", "lat": -32.56568051414552, "lon": 44.187064364583485, "alt_km": 21514.82017623546, "timestamp": "2025-12-16T23:36:36.439460+00:00", "meta": {"OBJECT_NAME": "BEIDOU-3 M2 (C20)", "OBJECT_ID": "2017-069B", "EPOCH": "2025-12-12T17:57:03.193632", "MEAN_MOTION": 1.86230645, "ECCENTRICITY": 0.00063664, "INCLINATION": 56.5266, "RA_OF_ASC_NODE": 69.2696, "ARG_OF_PERICENTER": 331.453, "MEAN_ANOMALY": 28.5312, "EPHEMERIS_TYPE": 0, "CLASSIFICATION_TYPE": "U", "NORAD_CAT_ID": 43002, "ELEMENT_SET_NO": 999, "REV_AT_EPOCH": 5512, "BSTAR": 0, "MEAN_MOTION_DOT": -7.4e-07, "MEAN_MOTION_DDOT": 0}, "tle": {"line1": "1 43002U 17069B   25346.74795363 -.00000074  00000+0  00000+0 0  9996", "line2": "2 43002  56.5266  69.2696 0006366 331.4530  28.5312  1.86230645 55128"}}, "geometry": {"type": "Point", "coordinates": [44.187064364583485, -32.56568051414552]}}, {"type": "Feature", "properties": {"norad_id": 43055, "name": "GSAT0215 (GALILEO 19)", "group": "gnss", "lat": -46.64910666950497, "lon": 94.09039296102821, "alt_km": 23228.6932803788, "timestamp": "2025-12-16T23:36:36.439472+00:00", "meta": {"OBJECT_NAME": "GSAT0215 (GALILEO 19)", "OBJECT_ID": "2017-079A", "EPOCH": "2025-12-11T21:30:24.060384", "MEAN_MOTION": 1.704739, "ECCENTRICITY": 0.00012658, "INCLINATION": 55.1303, "RA_OF_ASC_NODE": 226.661, "ARG_OF_PERICENTER": 350.6161, "MEAN_ANOMALY": 9.46, "EPHEMERIS_TYPE": 0, "CLASSIFICATION_TYPE": "U", "NORAD_CAT_ID": 43055, "ELEMENT_SET_NO": 999, "REV_AT_EPOCH": 4979, "BSTAR": 0, "MEAN_MOTION_DOT": 1.3e-07, "MEAN_MOTION_DDOT": 0}, "tle": {"line1": "1 43055U 17079A   25345.89611181  .00000013  00000+0  00000+0 0  9997", "line2": "2 43055  55.1303 226.6610 0001265 350.6161   9.4600  1.70473900 49794"}}, "geometry": {"type": "Point", "coordinates": [94.09039296102821, -46.64910666950497]}}, {"type": "Feature", "properties": {"norad_id": 43056, "name": "GSAT0216 (GALILEO 20)", "group": "gnss", "lat": 47.32507404138857, "lon": -84.38845025555723, "alt_km": 23217.3391808044, "timestamp": "2025-12-16T23:36:36.439483+00:00", "meta": {"OBJECT_NAME": "GSAT0216 (GALILEO 20)", "OBJECT_ID": "2017-079B", "EPOCH": "2025-12-13T08:39:13.176288", "MEAN_MOTION": 1.70474029, "ECCENTRICITY": 0.00023036, "INCLINATION": 55.1302, "RA_OF_ASC_NODE": 226.6206, "ARG_OF_PERICENTER": 326.735, "MEAN_ANOMALY": 33.3311, "EPHEMERIS_TYPE": 0, "CLASSIFICATION_TYPE": "U", "NORAD_CAT_ID": 43056, "ELEMENT_SET_NO": 999, "REV_AT_EPOCH": 4983, "BSTAR": 0, "MEAN_MOTION_DOT": 2.3e-07, "MEAN_MOTION_DDOT": 0}, "tle": {"line1": "1 43056U 17079B   25347.36056917  .00000023  00000+0  00000+0 0  9993", "line2": "2 43056  55.1302 226.6206 0002303 326.7350  33.3311  1.70474029 49836"}}, "geometry": {"type": "Point", "coordinates": [-84.38845025555723, 47.32507404138857]}}, {"type": "Feature", "properties": {"norad_id": 43057, "name": "GSAT0217 (GALILEO 21)", "group": "gnss", "lat": -51.23163966762388, "lon": 166.35572181693485, "alt_km": 23223.518389366465, "timestamp": "2025-12-16T23:36:36.439494+00:00", "meta": {"OBJECT_NAME": "GSAT0217 (GALILEO 21)", "OBJECT_ID": "2017-079C", "EPOCH": "2025-12-14T18:06:24.484320", "MEAN_MOTION": 1.70474057, "ECCENTRICITY": 0.00027983, "INCLINATION": 55.1277, "RA_OF_ASC_NODE": 226.5802, "ARG_OF_PERICENTER": 346.6847, "MEAN_ANOMALY": 13.3944, "EPHEMERIS_TYPE": 0, "CLASSIFICATION_TYPE": "U", "NORAD_CAT_ID": 43057, "ELEMENT_SET_NO": 999, "REV_AT_EPOCH": 4984, "BSTAR": 0, "MEAN_MOTION_DOT": 3.5e-07, "MEAN_MOTION_DDOT": 0}, "tle": {"line1": "1 43057U 17079C   25348.75445005  .00000035  00000+0  00000+0 0  9991", "line2": "2 43057  55.1277 226.5802 0002798 346.6847  13.3944  1.70474057 49841"}}, "geometry": {"type": "Point", "coordinates": [166.35572181693485, -51.23163966762388]}}, {"type": "Feature", "properties": {"norad_id": 43058, "name": "GSAT0218 (GALILEO 22)", "group": "gnss", "lat": 21.770826506108673, "lon": 30.3702023404189, "alt_km": 23227.066784411938, "timestamp": "2025-12-16T23:36:36.439506+00:00", "meta": {"OBJECT_NAME": "GSAT0218 (GALILEO 22)", "OBJECT_ID": "2017-079D", "EPOCH": "2025-12-12T15:04:31.769472", "MEAN_MOTION": 1.70474063, "ECCENTRICITY": 0.00028411, "INCLINATION": 55.1287, "RA_OF_ASC_NODE": 226.6365, "ARG_OF_PERICENTER": 306.3289, "MEAN_ANOMALY": 53.7237, "EPHEMERIS_TYPE": 0, "CLASSIFICATION_TYPE": "U", "NORAD_CAT_ID": 43058, "ELEMENT_SET_NO": 999, "REV_AT_EPOCH": 4983, "BSTAR": 0, "MEAN_MOTION_DOT": 1.7e-07, "MEAN_MOTION_DDOT": 0}, "tle": {"line1": "1 43058U 17079D   25346.62814548  .00000017  00000+0  00000+0 0  9998", "line2": "2 43058  55.1287 226.6365 0002841 306.3289  53.7237  1.70474063 49839"}}, "geometry": {"type": "Point", "coordinates": [30.3702023404189, 21.770826506108673]}}]}